CTC1_L_00626001-01
1 10000U 25406VM  26075.70039352  .00000000  00000+0  00000-0 0  9996
2 10000  65.0000   0.0000 0000000   0.0000   0.0000  4.33913782    15
CTC1_L_00626001-02
1 10001U 24341CZ  26075.70039352  .00000000  00000+0  00000-0 0  9994
2 10001  65.0000   0.0000 0000000   0.0000  36.0000  4.33913782    15
CTC1_L_00626001-03
1 10002U 23750RO  26075.70039352  .00000000  00000+0  00000-0 0  9998
2 10002  65.0000   0.0000 0000000   0.0000  72.0000  4.33913782    16
CTC1_L_00626001-04
1 10003U 25981RJ  26075.70039352  .00000000  00000+0  00000-0 0  9997
2 10003  65.0000   0.0000 0000000   0.0000 108.0000  4.33913782    17
CTC1_L_00626001-05
1 10004U 22291WY  26075.70039352  .00000000  00000+0  00000-0 0  9999
2 10004  65.0000   0.0000 0000000   0.0000 144.0000  4.33913782    18
CTC1_L_00626001-06
1 10005U 23500SN  26075.70039352  .00000000  00000+0  00000-0 0  9994
2 10005  65.0000   0.0000 0000000   0.0000 180.0000  4.33913782    19
CTC1_L_00626001-07
1 10006U 23280HR  26075.70039352  .00000000  00000+0  00000-0 0  9990
2 10006  65.0000   0.0000 0000000   0.0000 216.0000  4.33913782    10
CTC1_L_00626001-08
1 10007U 26256LP  26075.70039352  .00000000  00000+0  00000-0 0  9997
2 10007  65.0000   0.0000 0000000   0.0000 252.0000  4.33913782    11
CTC1_L_00626001-09
1 10008U 22826EM  26075.70039352  .00000000  00000+0  00000-0 0  9997
2 10008  65.0000   0.0000 0000000   0.0000 288.0000  4.33913782    11
CTC1_L_00626001-10
1 10009U 24625QN  26075.70039352  .00000000  00000+0  00000-0 0  9997
2 10009  65.0000   0.0000 0000000   0.0000 324.0000  4.33913782    13
CTC1_L_00626002-01
1 10010U 23199DW  26075.70039352  .00000000  00000+0  00000-0 0  9994
2 10010  65.0000  30.0000 0000000   0.0000  12.0000  4.33913782    12
CTC1_L_00626002-02
1 10011U 26074AE  26075.70039352  .00000000  00000+0  00000-0 0  9990
2 10011  65.0000  30.0000 0000000   0.0000  48.0000  4.33913782    12
CTC1_L_00626002-03
1 10012U 26800XU  26075.70039352  .00000000  00000+0  00000-0 0  9998
2 10012  65.0000  30.0000 0000000   0.0000  84.0000  4.33913782    13
CTC1_L_00626002-04
1 10013U 26496FA  26075.70039352  .00000000  00000+0  00000-0 0  9990
2 10013  65.0000  30.0000 0000000   0.0000 120.0000  4.33913782    15
CTC1_L_00626002-05
1 10014U 26449TF  26075.70039352  .00000000  00000+0  00000-0 0  9999
2 10014  65.0000  30.0000 0000000   0.0000 156.0000  4.33913782    15
CTC1_L_00626002-06
1 10015U 26649QA  26075.70039352  .00000000  00000+0  00000-0 0  9992
2 10015  65.0000  30.0000 0000000   0.0000 192.0000  4.33913782    16
CTC1_L_00626002-07
1 10016U 22229OH  26075.70039352  .00000000  00000+0  00000-0 0  9993
2 10016  65.0000  30.0000 0000000   0.0000 228.0000  4.33913782    17
CTC1_L_00626002-08
1 10017U 26565FP  26075.70039352  .00000000  00000+0  00000-0 0  9991
2 10017  65.0000  30.0000 0000000   0.0000 264.0000  4.33913782    18
CTC1_L_00626002-09
1 10018U 22574YB  26075.70039352  .00000000  00000+0  00000-0 0  9998
2 10018  65.0000  30.0000 0000000   0.0000 300.0000  4.33913782    10
CTC1_L_00626002-10
1 10019U 24184P   26075.70039352  .00000000  00000+0  00000-0 0  9998
2 10019  65.0000  30.0000 0000000   0.0000 336.0000  4.33913782    10
CTC1_L_00626003-01
1 10020U 22998GV  26075.70039352  .00000000  00000+0  00000-0 0  9991
2 10020  65.0000  60.0000 0000000   0.0000  24.0000  4.33913782    19
CTC1_L_00626003-02
1 10021U 24071QY  26075.70039352  .00000000  00000+0  00000-0 0  9996
2 10021  65.0000  60.0000 0000000   0.0000  60.0000  4.33913782    10
CTC1_L_00626003-03
1 10022U 26181PP  26075.70039352  .00000000  00000+0  00000-0 0  9991
2 10022  65.0000  60.0000 0000000   0.0000  96.0000  4.33913782    10
CTC1_L_00626003-04
1 10023U 24027SK  26075.70039352  .00000000  00000+0  00000-0 0  9999
2 10023  65.0000  60.0000 0000000   0.0000 132.0000  4.33913782    12
CTC1_L_00626003-05
1 10024U 25869CR  26075.70039352  .00000000  00000+0  00000-0 0  9995
2 10024  65.0000  60.0000 0000000   0.0000 168.0000  4.33913782    12
CTC1_L_00626003-06
1 10025U 25188QE  26075.70039352  .00000000  00000+0  00000-0 0  9990
2 10025  65.0000  60.0000 0000000   0.0000 204.0000  4.33913782    14
CTC1_L_00626003-07
1 10026U 23706XE  26075.70039352  .00000000  00000+0  00000-0 0  9995
2 10026  65.0000  60.0000 0000000   0.0000 240.0000  4.33913782    15
CTC1_L_00626003-08
1 10027U 22251LU  26075.70039352  .00000000  00000+0  00000-0 0  9990
2 10027  65.0000  60.0000 0000000   0.0000 276.0000  4.33913782    15
CTC1_L_00626003-09
1 10028U 26740KR  26075.70039352  .00000000  00000+0  00000-0 0  9998
2 10028  65.0000  60.0000 0000000   0.0000 312.0000  4.33913782    17
CTC1_L_00626003-10
1 10029U 22606FR  26075.70039352  .00000000  00000+0  00000-0 0  9996
2 10029  65.0000  60.0000 0000000   0.0000 348.0000  4.33913782    17
CTC1_L_00626004-01
1 10030U 23346IJ  26075.70039352  .00000000  00000+0  00000-0 0  9990
2 10030  65.0000  90.0000 0000000   0.0000  36.0000  4.33913782    16
CTC1_L_00626004-02
1 10031U 26350HL  26075.70039352  .00000000  00000+0  00000-0 0  9999
2 10031  65.0000  90.0000 0000000   0.0000  72.0000  4.33913782    17
CTC1_L_00626004-03
1 10032U 23805LQ  26075.70039352  .00000000  00000+0  00000-0 0  9992
2 10032  65.0000  90.0000 0000000   0.0000 108.0000  4.33913782    18
CTC1_L_00626004-04
1 10033U 26810KX  26075.70039352  .00000000  00000+0  00000-0 0  9992
2 10033  65.0000  90.0000 0000000   0.0000 144.0000  4.33913782    19
CTC1_L_00626004-05
1 10034U 22282RH  26075.70039352  .00000000  00000+0  00000-0 0  9992
2 10034  65.0000  90.0000 0000000   0.0000 180.0000  4.33913782    10
CTC1_L_00626004-06
1 10035U 22904KZ  26075.70039352  .00000000  00000+0  00000-0 0  9994
2 10035  65.0000  90.0000 0000000   0.0000 216.0000  4.33913782    11
CTC1_L_00626004-07
1 10036U 23700GZ  26075.70039352  .00000000  00000+0  00000-0 0  9990
2 10036  65.0000  90.0000 0000000   0.0000 252.0000  4.33913782    12
CTC1_L_00626004-08
1 10037U 23990FX  26075.70039352  .00000000  00000+0  00000-0 0  9992
2 10037  65.0000  90.0000 0000000   0.0000 288.0000  4.33913782    12
CTC1_L_00626004-09
1 10038U 24653CJ  26075.70039352  .00000000  00000+0  00000-0 0  9990
2 10038  65.0000  90.0000 0000000   0.0000 324.0000  4.33913782    14
CTC1_L_00626004-10
1 10039U 25344M   26075.70039352  .00000000  00000+0  00000-0 0  9999
2 10039  65.0000  90.0000 0000000   0.0000   0.0000  4.33913782    16
CTC1_L_00626005-01
1 10040U 24681O   26075.70039352  .00000000  00000+0  00000-0 0  9994
2 10040  65.0000 120.0000 0000000   0.0000  48.0000  4.33913782    14
CTC1_L_00626005-02
1 10041U 22409KE  26075.70039352  .00000000  00000+0  00000-0 0  9991
2 10041  65.0000 120.0000 0000000   0.0000  84.0000  4.33913782    15
CTC1_L_00626005-03
1 10042U 23047YC  26075.70039352  .00000000  00000+0  00000-0 0  9991
2 10042  65.0000 120.0000 0000000   0.0000 120.0000  4.33913782    17
CTC1_L_00626005-04
1 10043U 26773AI  26075.70039352  .00000000  00000+0  00000-0 0  9991
2 10043  65.0000 120.0000 0000000   0.0000 156.0000  4.33913782    17
CTC1_L_00626005-05
1 10044U 25505QZ  26075.70039352  .00000000  00000+0  00000-0 0  9994
2 10044  65.0000 120.0000 0000000   0.0000 192.0000  4.33913782    18
CTC1_L_00626005-06
1 10045U 26579JI  26075.70039352  .00000000  00000+0  00000-0 0  9997
2 10045  65.0000 120.0000 0000000   0.0000 228.0000  4.33913782    19
CTC1_L_00626005-07
1 10046U 24894XX  26075.70039352  .00000000  00000+0  00000-0 0  9996
2 10046  65.0000 120.0000 0000000   0.0000 264.0000  4.33913782    10
CTC1_L_00626005-08
1 10047U 22479MS  26075.70039352  .00000000  00000+0  00000-0 0  9994
2 10047  65.0000 120.0000 0000000   0.0000 300.0000  4.33913782    12
CTC1_L_00626005-09
1 10048U 22936FF  26075.70039352  .00000000  00000+0  00000-0 0  9993
2 10048  65.0000 120.0000 0000000   0.0000 336.0000  4.33913782    12
CTC1_L_00626005-10
1 10049U 23854KK  26075.70039352  .00000000  00000+0  00000-0 0  9994
2 10049  65.0000 120.0000 0000000   0.0000  12.0000  4.33913782    14
CTC1_L_00626006-01
1 10050U 24566RI  26075.70039352  .00000000  00000+0  00000-0 0  9997
2 10050  65.0000 150.0000 0000000   0.0000  60.0000  4.33913782    12
CTC1_L_00626006-02
1 10051U 25775PT  26075.70039352  .00000000  00000+0  00000-0 0  9991
2 10051  65.0000 150.0000 0000000   0.0000  96.0000  4.33913782    12
CTC1_L_00626006-03
1 10052U 24806GN  26075.70039352  .00000000  00000+0  00000-0 0  9996
2 10052  65.0000 150.0000 0000000   0.0000 132.0000  4.33913782    14
CTC1_L_00626006-04
1 10053U 24055AK  26075.70039352  .00000000  00000+0  00000-0 0  9993
2 10053  65.0000 150.0000 0000000   0.0000 168.0000  4.33913782    14
CTC1_L_00626006-05
1 10054U 22728IK  26075.70039352  .00000000  00000+0  00000-0 0  9999
2 10054  65.0000 150.0000 0000000   0.0000 204.0000  4.33913782    16
CTC1_L_00626006-06
1 10055U 25068TK  26075.70039352  .00000000  00000+0  00000-0 0  9990
2 10055  65.0000 150.0000 0000000   0.0000 240.0000  4.33913782    17
CTC1_L_00626006-07
1 10056U 26235HN  26075.70039352  .00000000  00000+0  00000-0 0  9998
2 10056  65.0000 150.0000 0000000   0.0000 276.0000  4.33913782    17
CTC1_L_00626006-08
1 10057U 23245BL  26075.70039352  .00000000  00000+0  00000-0 0  9997
2 10057  65.0000 150.0000 0000000   0.0000 312.0000  4.33913782    19
CTC1_L_00626006-09
1 10058U 25968ON  26075.70039352  .00000000  00000+0  00000-0 0  9992
2 10058  65.0000 150.0000 0000000   0.0000 348.0000  4.33913782    19
CTC1_L_00626006-10
1 10059U 26867AB  26075.70039352  .00000000  00000+0  00000-0 0  9992
2 10059  65.0000 150.0000 0000000   0.0000  24.0000  4.33913782    11
CTC1_L_00626007-01
1 10060U 22887BS  26075.70039352  .00000000  00000+0  00000-0 0  9992
2 10060  65.0000 180.0000 0000000   0.0000  72.0000  4.33913782    19
CTC1_L_00626007-02
1 10061U 26774SR  26075.70039352  .00000000  00000+0  00000-0 0  9992
2 10061  65.0000 180.0000 0000000   0.0000 108.0000  4.33913782    10
